{"type": "FeatureCollection", "features": [ {"type": "Feature", "properties": {"norad_id": 67040, "name": "STARLINK-35786", "group": "last-30-days", "lat": 23.1481641666066, "lon": -77.17080830469928, "alt_km": 311.169530102482, "timestamp": "2025-12-21T05:44:50.294213+00:00", "meta": {"OBJECT_NAME": "STARLINK-35786", "OBJECT_ID": "2025-294L", "EPOCH": "2025-12-20T22:00:01.999584", "MEAN_MOTION": 15.8683463, "ECCENTRICITY": 0.00016798, "INCLINATION": 43.0001, "RA_OF_ASC_NODE": 132.131, "ARG_OF_PERICENTER": 279.461, "MEAN_ANOMALY": 179.6503, "EPHEMERIS_TYPE": 0, "CLASSIFICATION_TYPE": "U", "NORAD_CAT_ID": 67040, "ELEMENT_SET_NO": 999, "REV_AT_EPOCH": 143, "BSTAR": -0.0059064764, "MEAN_MOTION_DOT": -0.01372817, "MEAN_MOTION_DDOT": 0}, "tle": {"line1": "1 67040U 25294L   25354.91668981 -.01372817  00000+0 -59065-2 0  9993", "line2": "2 67040  43.0001 132.1310 0001679 279.4610 179.6503 15.86834630  1433"}}, "geometry": {"type": "Point", "coordinates": [-77.17080830469928, 23.1481641666066]}}, {"type": "Feature", "properties": {"norad_id": 67041, "name": "STARLINK-35765", "group": "last-30-days", "lat": 20.62909524213781, "lon": -73.69939930078577, "alt_km": 311.3601133901102, "timestamp": "2025-12-21T05:44:50.294223+00:00", "meta": {"OBJECT_NAME": "STARLINK-35765", "OBJECT_ID": "2025-294M", "EPOCH": "2025-12-20T22:00:01.999584", "MEAN_MOTION": 15.86894953, "ECCENTRICITY": 0.00016128, "INCLINATION": 42.9999, "RA_OF_ASC_NODE": 132.1208, "ARG_OF_PERICENTER": 281.1275, "MEAN_ANOMALY": 182.011, "EPHEMERIS_TYPE": 0, "CLASSIFICATION_TYPE": "U", "NORAD_CAT_ID": 67041, "ELEMENT_SET_NO": 999, "REV_AT_EPOCH": 143, "BSTAR": -0.005936689, "MEAN_MOTION_DOT": -0.01382514, "MEAN_MOTION_DDOT": 0}, "tle": {"line1": "1 67041U 25294M   25354.91668981 -.01382514  00000+0 -59367-2 0  9994", "line2": "2 67041  42.9999 132.1208 0001612 281.1275 182.0110 15.86894953  1434"}}, "geometry": {"type": "Point", "coordinates": [-73.69939930078577, 20.62909524213781]}}, {"type": "Feature", "properties": {"norad_id": 67042, "name": "STARLINK-35773", "group": "last-30-days", "lat": 19.243442606814835, "lon": -71.87777386889752, "alt_km": 311.5102079208564, "timestamp": "2025-12-21T05:44:50.294233+00:00", "meta": {"OBJECT_NAME": "STARLINK-35773", "OBJECT_ID": "2025-294N", "EPOCH": "2025-12-20T22:00:01.999584", "MEAN_MOTION": 15.86921194, "ECCENTRICITY": 0.00016497, "INCLINATION": 43.0001, "RA_OF_ASC_NODE": 132.1153, "ARG_OF_PERICENTER": 281.8761, "MEAN_ANOMALY": 183.439, "EPHEMERIS_TYPE": 0, "CLASSIFICATION_TYPE": "U", "NORAD_CAT_ID": 67042, "ELEMENT_SET_NO": 999, "REV_AT_EPOCH": 162, "BSTAR": -0.0059436448, "MEAN_MOTION_DOT": -0.01385536, "MEAN_MOTION_DDOT": 0}, "tle": {"line1": "1 67042U 25294N   25354.91668981 -.01385536  00000+0 -59436-2 0  9999", "line2": "2 67042  43.0001 132.1153 0001649 281.8761 183.4390 15.86921194  1621"}}, "geometry": {"type": "Point", "coordinates": [-71.87777386889752, 19.243442606814835]}}, {"type": "Feature", "properties": {"norad_id": 67043, "name": "STARLINK-35901", "group": "last-30-days", "lat": 17.851900302125273, "lon": -70.1020658316116, "alt_km": 311.53598522730954, "timestamp": "2025-12-21T05:44:50.294245+00:00", "meta": {"OBJECT_NAME": "STARLINK-35901", "OBJECT_ID": "2025-294P", "EPOCH": "2025-12-20T22:00:01.999584", "MEAN_MOTION": 15.86954924, "ECCENTRICITY": 0.00015816, "INCLINATION": 43, "RA_OF_ASC_NODE": 132.11, "ARG_OF_PERICENTER": 278.4063, "MEAN_ANOMALY": 189.0627, "EPHEMERIS_TYPE": 0, "CLASSIFICATION_TYPE": "U", "NORAD_CAT_ID": 67043, "ELEMENT_SET_NO": 999, "REV_AT_EPOCH": 162, "BSTAR": -0.0059957004, "MEAN_MOTION_DOT": -0.01398093, "MEAN_MOTION_DDOT": 0}, "tle": {"line1": "1 67043U 25294P   25354.91668981 -.01398093  00000+0 -59957-2 0  9990", "line2": "2 67043  43.0000 132.1100 0001581 278.4063 189.0627 15.86954924  1627"}}, "geometry": {"type": "Point", "coordinates": [-70.1020658316116, 17.851900302125273]}}, {"type": "Feature", "properties": {"norad_id": 67044, "name": "STARLINK-35884", "group": "last-30-days", "lat": 16.491613008575523, "lon": -68.411971161346, "alt_km": 311.69339396847863, "timestamp": "2025-12-21T05:44:50.294255+00:00", "meta": {"OBJECT_NAME": "STARLINK-35884", "OBJECT_ID": "2025-294Q", "EPOCH": "2025-12-20T22:00:01.999584", "MEAN_MOTION": 15.8698536, "ECCENTRICITY": 0.00016399, "INCLINATION": 43.0002, "RA_OF_ASC_NODE": 132.1047, "ARG_OF_PERICENTER": 280.267, "MEAN_ANOMALY": 189.2821, "EPHEMERIS_TYPE": 0, "CLASSIFICATION_TYPE": "U", "NORAD_CAT_ID": 67044, "ELEMENT_SET_NO": 999, "REV_AT_EPOCH": 162, "BSTAR": -0.0059999427, "MEAN_MOTION_DOT": -0.01400852, "MEAN_MOTION_DDOT": 0}, "tle": {"line1": "1 67044U 25294Q   25354.91668981 -.01400852  00000+0 -59999-2 0  9994", "line2": "2 67044  43.0002 132.1047 0001639 280.2670 189.2821 15.86985360  1625"}}, "geometry": {"type": "Point", "coordinates": [-68.411971161346, 16.491613008575523]}}, {"type": "Feature", "properties": {"norad_id": 67045, "name": "STARLINK-35891", "group": "last-30-days", "lat": 14.838033749231652, "lon": -66.41120847582143, "alt_km": 311.93693761439863, "timestamp": "2025-12-21T05:44:50.294265+00:00", "meta": {"OBJECT_NAME": "STARLINK-35891", "OBJECT_ID": "2025-294R", "EPOCH": "2025-12-20T22:00:01.999584", "MEAN_MOTION": 15.87009886, "ECCENTRICITY": 0.00016872, "INCLINATION": 43.0001, "RA_OF_ASC_NODE": 132.0981, "ARG_OF_PERICENTER": 283.0083, "MEAN_ANOMALY": 189.06, "EPHEMERIS_TYPE": 0, "CLASSIFICATION_TYPE": "U", "NORAD_CAT_ID": 67045, "ELEMENT_SET_NO": 999, "REV_AT_EPOCH": 154, "BSTAR": -0.006049757, "MEAN_MOTION_DOT": -0.01412498, "MEAN_MOTION_DDOT": 0}, "tle": {"line1": "1 67045U 25294R   25354.91668981 -.01412498  00000+0 -60498-2 0  9990", "line2": "2 67045  43.0001 132.0981 0001687 283.0083 189.0600 15.87009886  1548"}}, "geometry": {"type": "Point", "coordinates": [-66.41120847582143, 14.838033749231652]}}, {"type": "Feature", "properties": {"norad_id": 67046, "name": "STARLINK-35721", "group": "last-30-days", "lat": 13.332201938950845, "lon": -64.63292873844898, "alt_km": 312.05279608649744, "timestamp": "2025-12-21T05:44:50.294277+00:00", "meta": {"OBJECT_NAME": "STARLINK-35721", "OBJECT_ID": "2025-294S", "EPOCH": "2025-12-20T22:00:01.999584", "MEAN_MOTION": 15.87033905, "ECCENTRICITY": 0.00016494, "INCLINATION": 43.0003, "RA_OF_ASC_NODE": 132.0925, "ARG_OF_PERICENTER": 283.2045, "MEAN_ANOMALY": 191.1292, "EPHEMERIS_TYPE": 0, "CLASSIFICATION_TYPE": "U", "NORAD_CAT_ID": 67046, "ELEMENT_SET_NO": 999, "REV_AT_EPOCH": 162, "BSTAR": -0.0060522929, "MEAN_MOTION_DOT": -0.01414455, "MEAN_MOTION_DDOT": 0}, "tle": {"line1": "1 67046U 25294S   25354.91668981 -.01414455  00000+0 -60523-2 0  9995", "line2": "2 67046  43.0003 132.0925 0001649 283.2045 191.1292 15.87033905  1626"}}, "geometry": {"type": "Point", "coordinates": [-64.63292873844898, 13.332201938950845]}}, {"type": "Feature", "properties": {"norad_id": 67047, "name": "STARLINK-35779", "group": "last-30-days", "lat": 11.650135296370804, "lon": -62.689198753720575, "alt_km": 312.2011400679394, "timestamp": "2025-12-21T05:44:50.294287+00:00", "meta": {"OBJECT_NAME": "STARLINK-35779", "OBJECT_ID": "2025-294T", "EPOCH": "2025-12-20T22:00:01.999584", "MEAN_MOTION": 15.87059524, "ECCENTRICITY": 0.00017171, "INCLINATION": 43.0001, "RA_OF_ASC_NODE": 132.0865, "ARG_OF_PERICENTER": 281.4821, "MEAN_ANOMALY": 195.3669, "EPHEMERIS_TYPE": 0, "CLASSIFICATION_TYPE": "U", "NORAD_CAT_ID": 67047, "ELEMENT_SET_NO": 999, "REV_AT_EPOCH": 143, "BSTAR": -0.0060931572, "MEAN_MOTION_DOT": -0.01424378, "MEAN_MOTION_DDOT": 0}, "tle": {"line1": "1 67047U 25294T   25354.91668981 -.01424378  00000+0 -60932-2 0  9995", "line2": "2 67047  43.0001 132.0865 0001717 281.4821 195.3669 15.87059524  1434"}}, "geometry": {"type": "Point", "coordinates": [-62.689198753720575, 11.650135296370804]}}, {"type": "Feature", "properties": {"norad_id": 67048, "name": "STARLINK-35905", "group": "last-30-days", "lat": 10.361961124766964, "lon": -61.226924560659285, "alt_km": 312.26533746192126, "timestamp": "2025-12-21T05:44:50.294297+00:00", "meta": {"OBJECT_NAME": "STARLINK-35905", "OBJECT_ID": "2025-294U", "EPOCH": "2025-12-20T22:00:01.999584", "MEAN_MOTION": 15.87098854, "ECCENTRICITY": 0.00016282, "INCLINATION": 43.0002, "RA_OF_ASC_NODE": 132.0817, "ARG_OF_PERICENTER": 282.9902, "MEAN_ANOMALY": 195.7472, "EPHEMERIS_TYPE": 0, "CLASSIFICATION_TYPE": "U", "NORAD_CAT_ID": 67048, "ELEMENT_SET_NO": 999, "REV_AT_EPOCH": 154, "BSTAR": -0.0061209029, "MEAN_MOTION_DOT": -0.01432362, "MEAN_MOTION_DDOT": 0}, "tle": {"line1": "1 67048U 25294U   25354.91668981 -.01432362  00000+0 -61209-2 0  9996", "line2": "2 67048  43.0002 132.0817 0001628 282.9902 195.7472 15.87098854  1547"}}, "geometry": {"type": "Point", "coordinates": [-61.226924560659285, 10.361961124766964]}}, {"type": "Feature", "properties": {"norad_id": 67049, "name": "STARLINK-35877", "group": "last-30-days", "lat": 8.731389489706887, "lon": -59.40346315259353, "alt_km": 312.3694333033254, "timestamp": "2025-12-21T05:44:50.294309+00:00", "meta": {"OBJECT_NAME": "STARLINK-35877", "OBJECT_ID": "2025-294V", "EPOCH": "2025-12-20T22:00:01.999584", "MEAN_MOTION": 15.87126357, "ECCENTRICITY": 0.00016206, "INCLINATION": 43.0005, "RA_OF_ASC_NODE": 132.0755, "ARG_OF_PERICENTER": 281.486, "MEAN_ANOMALY": 199.6554, "EPHEMERIS_TYPE": 0, "CLASSIFICATION_TYPE": "U", "NORAD_CAT_ID": 67049, "ELEMENT_SET_NO": 999, "REV_AT_EPOCH": 162, "BSTAR": -0.006158953, "MEAN_MOTION_DOT": -0.01441776, "MEAN_MOTION_DDOT": 0}, "tle": {"line1": "1 67049U 25294V   25354.91668981 -.01441776  00000+0 -61590-2 0  9999", "line2": "2 67049  43.0005 132.0755 0001620 281.4860 199.6554 15.87126357  1624"}}, "geometry": {"type": "Point", "coordinates": [-59.40346315259353, 8.731389489706887]}}]}